[{"OBJECT_NAME":"TIANQI-35","OBJECT_ID":"2024-245C","EPOCH":"2026-03-09T22:48:29.661984","MEAN_MOTION":13.99155463,"ECCENTRICITY":0.00115717,"INCLINATION":44.9856,"RA_OF_ASC_NODE":43.2512,"ARG_OF_PERICENTER":259.4757,"MEAN_ANOMALY":100.4772,"EPHEMERIS_TYPE":0,"CLASSIFICATION_TYPE":"U","NORAD_CAT_ID":62367,"ELEMENT_SET_NO":999,"REV_AT_EPOCH":6244,"BSTAR":0.00014384767,"MEAN_MOTION_DOT":8.1e-7,"MEAN_MOTION_DDOT":0},{"OBJECT_NAME":"CZ-6A DEB","OBJECT_ID":"2024-140AAE","EPOCH":"2026-03-08T08:33:09.820224","MEAN_MOTION":13.81202651,"ECCENTRICITY":0.02300836,"INCLINATION":89.0376,"RA_OF_ASC_NODE":293.0176,"ARG_OF_PERICENTER":267.0254,"MEAN_ANOMALY":90.4565,"EPHEMERIS_TYPE":0,"CLASSIFICATION_TYPE":"U","NORAD_CAT_ID":61472,"ELEMENT_SET_NO":999,"REV_AT_EPOCH":7597,"BSTAR":0.00044564138,"MEAN_MOTION_DOT":5.87e-6,"MEAN_MOTION_DDOT":0}]
